ONEWEB-0525             
1 54143U 22138AG  24088.75572150 -.00000144  00000+0 -39291-3 0  9994
2 54143  87.9096 106.2853 0001690  82.4481 277.6844 13.19725149 69933
ONEWEB-0526             
1 54144U 22138AH  24088.94052234 -.00000277  00000+0 -72346-3 0  9997
2 54144  87.9095 106.2453 0001756  91.5216 268.6118 13.19724518 69932
ONEWEB-0529             
1 54145U 22138AJ  24089.09532379  .00000079  00000+0  16490-3 0  9994
2 54145  87.9103 106.2234 0001588  84.2263 275.9051 13.19723143 70846
ONEWEB-0531             
1 54146U 22138AK  24089.24089269  .00000098  00000+0  20941-3 0  9994
2 54146  87.9145  75.6047 0002460 113.7967 246.3424 13.20769893 73262
ONEWEB-0535             
1 54147U 22138AL  24088.74940426 -.00000005  00000+0 -45971-4 0  9991
2 54147  87.9095 106.2820 0002213  97.0179 263.1205 13.19723859 69946
ONEWEB-0536             
1 54148U 22138AM  24088.92523916  .00000096  00000+0  20521-3 0  9994
2 54148  87.9144  75.7176 0002826 102.3816 257.7634 13.20769523 72347
GSLV R/B                
1 54149U 22138AN  24088.94941537  .00004315  00000+0  44049-3 0  9999
2 54149  87.3833  43.7981 0023018 197.2194 162.8255 14.90208102 77837
ONEWEB-0527             
1 54642U 22166A   24088.91699866 -.00000134  00000+0 -35481-3 0  9997
2 54642  87.9277  45.2608 0001816  85.0215 275.1127 13.21826921 64498
